[{"CCSDS_OMM_VERS":"2.0","COMMENT":"GENERATED VIA SPACE-TRACK.ORG API","CREATION_DATE":"2023-05-13T18:20:06","ORIGINATOR":"18 SPCS","OBJECT_NAME":"KSF3-C","OBJECT_ID":"2023-001K","CENTER_NAME":"EARTH","REF_FRAME":"TEME","TIME_SYSTEM":"UTC","MEAN_ELEMENT_THEORY":"SGP4","EPOCH":"2023-05-13T10:08:03.764256","MEAN_MOTION":"15.16089404","ECCENTRICITY":"0.00119580","INCLINATION":"97.4795","RA_OF_ASC_NODE":"193.4549","ARG_OF_PERICENTER":"131.3487","MEAN_ANOMALY":"352.5612","EPHEMERIS_TYPE":"0","CLASSIFICATION_TYPE":"U","NORAD_CAT_ID":"55018","ELEMENT_SET_NO":"999","REV_AT_EPOCH":"1979","BSTAR":"0.00081427000000","MEAN_MOTION_DOT":"0.00015661","MEAN_MOTION_DDOT":"0.0000000000000","SEMIMAJOR_AXIS":"6895.810","PERIOD":"94.981","APOAPSIS":"525.921","PERIAPSIS":"509.429","OBJECT_TYPE":"PAYLOAD","RCS_SIZE":"MEDIUM","COUNTRY_CODE":"LUXE","LAUNCH_DATE":"2023-01-03","SITE":"AFETR","DECAY_DATE":null,"FILE":"3906915","GP_ID":"231749425","TLE_LINE0":"0 KSF3-C","TLE_LINE1":"1 55018U 23001K   23133.42226579  .00015661  00000-0  81427-3 0  9998","TLE_LINE2":"2 55018  97.4795 193.4549 0011958 131.3487 352.5612 15.16089404 19796"},{"CCSDS_OMM_VERS":"2.0","COMMENT":"GENERATED VIA SPACE-TRACK.ORG API","CREATION_DATE":"2023-05-13T22:46:12","ORIGINATOR":"18 SPCS","OBJECT_NAME":"KSF3-C","OBJECT_ID":"2023-001K","CENTER_NAME":"EARTH","REF_FRAME":"TEME","TIME_SYSTEM":"UTC","MEAN_ELEMENT_THEORY":"SGP4","EPOCH":"2023-05-13T18:07:12.138240","MEAN_MOTION":"15.16099675","ECCENTRICITY":"0.00119500","INCLINATION":"97.4795","RA_OF_ASC_NODE":"193.7831","ARG_OF_PERICENTER":"130.4520","MEAN_ANOMALY":"8.3547","EPHEMERIS_TYPE":"0","CLASSIFICATION_TYPE":"U","NORAD_CAT_ID":"55018","ELEMENT_SET_NO":"999","REV_AT_EPOCH":"1984","BSTAR":"0.00081345000000","MEAN_MOTION_DOT":"0.00015650","MEAN_MOTION_DDOT":"0.0000000000000","SEMIMAJOR_AXIS":"6895.779","PERIOD":"94.981","APOAPSIS":"525.885","PERIAPSIS":"509.404","OBJECT_TYPE":"PAYLOAD","RCS_SIZE":"MEDIUM","COUNTRY_CODE":"LUXE","LAUNCH_DATE":"2023-01-03","SITE":"AFETR","DECAY_DATE":null,"FILE":"3906998","GP_ID":"231753322","TLE_LINE0":"0 KSF3-C","TLE_LINE1":"1 55018U 23001K   23133.75500160  .00015650  00000-0  81345-3 0  9992","TLE_LINE2":"2 55018  97.4795 193.7831 0011950 130.4520   8.3547 15.16099675 19843"},{"CCSDS_OMM_VERS":"2.0","COMMENT":"GENERATED VIA SPACE-TRACK.ORG API","CREATION_DATE":"2023-05-14T02:43:03","ORIGINATOR":"18 SPCS","OBJECT_NAME":"KSF3-C","OBJECT_ID":"2023-001K","CENTER_NAME":"EARTH","REF_FRAME":"TEME","TIME_SYSTEM":"UTC","MEAN_ELEMENT_THEORY":"SGP4","EPOCH":"2023-05-13T18:07:12.138240","MEAN_MOTION":"15.16099675","ECCENTRICITY":"0.00119500","INCLINATION":"97.4795","RA_OF_ASC_NODE":"193.7831","ARG_OF_PERICENTER":"130.4520","MEAN_ANOMALY":"8.3547","EPHEMERIS_TYPE":"0","CLASSIFICATION_TYPE":"U","NORAD_CAT_ID":"55018","ELEMENT_SET_NO":"999","REV_AT_EPOCH":"1984","BSTAR":"0.00081345000000","MEAN_MOTION_DOT":"0.00015650","MEAN_MOTION_DDOT":"0.0000000000000","SEMIMAJOR_AXIS":"6895.779","PERIOD":"94.981","APOAPSIS":"525.885","PERIAPSIS":"509.404","OBJECT_TYPE":"PAYLOAD","RCS_SIZE":"MEDIUM","COUNTRY_CODE":"LUXE","LAUNCH_DATE":"2023-01-03","SITE":"AFETR","DECAY_DATE":null,"FILE":"3907148","GP_ID":"231782149","TLE_LINE0":"0 KSF3-C","TLE_LINE1":"1 55018U 23001K   23133.75500160  .00015650  00000-0  81345-3 0  9992","TLE_LINE2":"2 55018  97.4795 193.7831 0011950 130.4520   8.3547 15.16099675 19843"},{"CCSDS_OMM_VERS":"2.0","COMMENT":"GENERATED VIA SPACE-TRACK.ORG API","CREATION_DATE":"2023-05-14T06:46:12","ORIGINATOR":"18 SPCS","OBJECT_NAME":"KSF3-C","OBJECT_ID":"2023-001K","CENTER_NAME":"EARTH","REF_FRAME":"TEME","TIME_SYSTEM":"UTC","MEAN_ELEMENT_THEORY":"SGP4","EPOCH":"2023-05-14T03:14:31.962624","MEAN_MOTION":"15.16110838","ECCENTRICITY":"0.00120310","INCLINATION":"97.4793","RA_OF_ASC_NODE":"194.1574","ARG_OF_PERICENTER":"129.6091","MEAN_ANOMALY":"282.4019","EPHEMERIS_TYPE":"0","CLASSIFICATION_TYPE":"U","NORAD_CAT_ID":"55018","ELEMENT_SET_NO":"999","REV_AT_EPOCH":"1990","BSTAR":"0.00080904000000","MEAN_MOTION_DOT":"0.00015569","MEAN_MOTION_DDOT":"0.0000000000000","SEMIMAJOR_AXIS":"6895.745","PERIOD":"94.980","APOAPSIS":"525.906","PERIAPSIS":"509.314","OBJECT_TYPE":"PAYLOAD","RCS_SIZE":"MEDIUM","COUNTRY_CODE":"LUXE","LAUNCH_DATE":"2023-01-03","SITE":"AFETR","DECAY_DATE":null,"FILE":"3907227","GP_ID":"231784966","TLE_LINE0":"0 KSF3-C","TLE_LINE1":"1 55018U 23001K   23134.13509216  .00015569  00000-0  80904-3 0  9995","TLE_LINE2":"2 55018  97.4793 194.1574 0012031 129.6091 282.4019 15.16110838 19905"},{"CCSDS_OMM_VERS":"2.0","COMMENT":"GENERATED VIA SPACE-TRACK.ORG API","CREATION_DATE":"2023-05-14T14:46:12","ORIGINATOR":"18 SPCS","OBJECT_NAME":"KSF3-C","OBJECT_ID":"2023-001K","CENTER_NAME":"EARTH","REF_FRAME":"TEME","TIME_SYSTEM":"UTC","MEAN_ELEMENT_THEORY":"SGP4","EPOCH":"2023-05-14T11:10:57.157248","MEAN_MOTION":"15.16120885","ECCENTRICITY":"0.00120020","INCLINATION":"97.4794","RA_OF_ASC_NODE":"194.4838","ARG_OF_PERICENTER":"128.2965","MEAN_ANOMALY":"288.3337","EPHEMERIS_TYPE":"0","CLASSIFICATION_TYPE":"U","NORAD_CAT_ID":"55018","ELEMENT_SET_NO":"999","REV_AT_EPOCH":"1995","BSTAR":"0.00080765000000","MEAN_MOTION_DOT":"0.00015547","MEAN_MOTION_DDOT":"0.0000000000000","SEMIMAJOR_AXIS":"6895.715","PERIOD":"94.979","APOAPSIS":"525.856","PERIAPSIS":"509.304","OBJECT_TYPE":"PAYLOAD","RCS_SIZE":"MEDIUM","COUNTRY_CODE":"LUXE","LAUNCH_DATE":"2023-01-03","SITE":"AFETR","DECAY_DATE":null,"FILE":"3907582","GP_ID":"231793439","TLE_LINE0":"0 KSF3-C","TLE_LINE1":"1 55018U 23001K   23134.46593932  .00015547  00000-0  80765-3 0  9990","TLE_LINE2":"2 55018  97.4794 194.4838 0012002 128.2965 288.3337 15.16120885 19951"},{"CCSDS_OMM_VERS":"2.0","COMMENT":"GENERATED VIA SPACE-TRACK.ORG API","CREATION_DATE":"2023-05-14T17:40:53","ORIGINATOR":"18 SPCS","OBJECT_NAME":"KSF3-C","OBJECT_ID":"2023-001K","CENTER_NAME":"EARTH","REF_FRAME":"TEME","TIME_SYSTEM":"UTC","MEAN_ELEMENT_THEORY":"SGP4","EPOCH":"2023-05-14T14:47:31.668000","MEAN_MOTION":"15.16125604","ECCENTRICITY":"0.00119560","INCLINATION":"97.4795","RA_OF_ASC_NODE":"194.6321","ARG_OF_PERICENTER":"127.9404","MEAN_ANOMALY":"29.0545","EPHEMERIS_TYPE":"0","CLASSIFICATION_TYPE":"U","NORAD_CAT_ID":"55018","ELEMENT_SET_NO":"999","REV_AT_EPOCH":"1997","BSTAR":"0.00080805000000","MEAN_MOTION_DOT":"0.00015557","MEAN_MOTION_DDOT":"0.0000000000000","SEMIMAJOR_AXIS":"6895.700","PERIOD":"94.979","APOAPSIS":"525.810","PERIAPSIS":"509.321","OBJECT_TYPE":"PAYLOAD","RCS_SIZE":"MEDIUM","COUNTRY_CODE":"LUXE","LAUNCH_DATE":"2023-01-03","SITE":"AFETR","DECAY_DATE":null,"FILE":"3907744","GP_ID":"231823131","TLE_LINE0":"0 KSF3-C","TLE_LINE1":"1 55018U 23001K   23134.61633875  .00015557  00000-0  80805-3 0  9994","TLE_LINE2":"2 55018  97.4795 194.6321 0011956 127.9404  29.0545 15.16125604 19979"},{"CCSDS_OMM_VERS":"2.0","COMMENT":"GENERATED VIA SPACE-TRACK.ORG API","CREATION_DATE":"2023-05-14T22:56:12","ORIGINATOR":"18 SPCS","OBJECT_NAME":"KSF3-C","OBJECT_ID":"2023-001K","CENTER_NAME":"EARTH","REF_FRAME":"TEME","TIME_SYSTEM":"UTC","MEAN_ELEMENT_THEORY":"SGP4","EPOCH":"2023-05-14T17:55:11.888832","MEAN_MOTION":"15.16129042","ECCENTRICITY":"0.00118910","INCLINATION":"97.4794","RA_OF_ASC_NODE":"194.7603","ARG_OF_PERICENTER":"127.4835","MEAN_ANOMALY":"20.3852","EPHEMERIS_TYPE":"0","CLASSIFICATION_TYPE":"U","NORAD_CAT_ID":"55018","ELEMENT_SET_NO":"999","REV_AT_EPOCH":"1999","BSTAR":"0.00080428000000","MEAN_MOTION_DOT":"0.00015485","MEAN_MOTION_DDOT":"0.0000000000000","SEMIMAJOR_AXIS":"6895.690","PERIOD":"94.979","APOAPSIS":"525.755","PERIAPSIS":"509.355","OBJECT_TYPE":"PAYLOAD","RCS_SIZE":"MEDIUM","COUNTRY_CODE":"LUXE","LAUNCH_DATE":"2023-01-03","SITE":"AFETR","DECAY_DATE":null,"FILE":"3907820","GP_ID":"231826378","TLE_LINE0":"0 KSF3-C","TLE_LINE1":"1 55018U 23001K   23134.74666538  .00015485  00000-0  80428-3 0  9991","TLE_LINE2":"2 55018  97.4794 194.7603 0011891 127.4835  20.3852 15.16129042 19990"},{"CCSDS_OMM_VERS":"2.0","COMMENT":"GENERATED VIA SPACE-TRACK.ORG API","CREATION_DATE":"2023-05-15T03:39:04","ORIGINATOR":"18 SPCS","OBJECT_NAME":"KSF3-C","OBJECT_ID":"2023-001K","CENTER_NAME":"EARTH","REF_FRAME":"TEME","TIME_SYSTEM":"UTC","MEAN_ELEMENT_THEORY":"SGP4","EPOCH":"2023-05-14T22:34:22.276704","MEAN_MOTION":"15.16133743","ECCENTRICITY":"0.00118610","INCLINATION":"97.4794","RA_OF_ASC_NODE":"194.9510","ARG_OF_PERICENTER":"126.4219","MEAN_ANOMALY":"358.9235","EPHEMERIS_TYPE":"0","CLASSIFICATION_TYPE":"U","NORAD_CAT_ID":"55018","ELEMENT_SET_NO":"999","REV_AT_EPOCH":"2002","BSTAR":"0.00079623000000","MEAN_MOTION_DOT":"0.00015331","MEAN_MOTION_DDOT":"0.0000000000000","SEMIMAJOR_AXIS":"6895.676","PERIOD":"94.978","APOAPSIS":"525.720","PERIAPSIS":"509.362","OBJECT_TYPE":"PAYLOAD","RCS_SIZE":"MEDIUM","COUNTRY_CODE":"LUXE","LAUNCH_DATE":"2023-01-03","SITE":"AFETR","DECAY_DATE":null,"FILE":"3908005","GP_ID":"231856992","TLE_LINE0":"0 KSF3-C","TLE_LINE1":"1 55018U 23001K   23134.94053561  .00015331  00000-0  79623-3 0  9994","TLE_LINE2":"2 55018  97.4794 194.9510 0011861 126.4219 358.9235 15.16133743 20025"}]